ELYSIUM STAR 2 & LFF    
1 43760U 18099C   24162.13846019  .00047663  00000+0  18709-2 0  9996
2 43760  97.5166 229.7002 0004951 284.4540  75.6148 15.25552001302163
